{
"type": "FeatureCollection",
"name": "recintos2",
"crs": { "type": "name", "properties": { "name": "urn:ogc:def:crs:OGC:1.3:CRS84" } },
"features": [
{ "type": "Feature", "properties": { "Nombre": "Terminal internacional", "Ubicacion": "Diego Portales Nº 951", "Numero_Ide": "17" }, "geometry": { "type": "MultiPolygon", "coordinates": [ [ [ [ -70.30418706329236, -18.474142573218934 ], [ -70.304486364532806, -18.473955284584353 ], [ -70.304906613079197, -18.473579088949478 ], [ -70.304418665358355, -18.473052159563128 ], [ -70.303719419711513, -18.473666825793615 ], [ -70.30418706329236, -18.474142573218934 ] ] ] ] } },
{ "type": "Feature", "properties": { "Nombre": "Dirección Desarrollo Comunitario", "Ubicacion": "Belén Nº 1693", "Numero_Ide": "10" }, "geometry": { "type": "MultiPolygon", "coordinates": [ [ [ [ -70.294724344452618, -18.477174120008691 ], [ -70.29520730573482, -18.477728668252556 ], [ -70.295632132851793, -18.477385496347711 ], [ -70.295149877825892, -18.47682906390142 ], [ -70.295135761764811, -18.476840916680963 ], [ -70.295091539808809, -18.476879171615082 ], [ -70.294954098335012, -18.476988547207206 ], [ -70.294873141713424, -18.477053258575403 ], [ -70.294836427465725, -18.477082425802081 ], [ -70.29482230451066, -18.477093365937712 ], [ -70.294724344452618, -18.477174120008691 ] ] ] ] } },
{ "type": "Feature", "properties": { "Nombre": "Oficina Adulto Mayor  y Oficina de Deportes", "Ubicacion": "Av. Capitán Avalos Nº 2441 - 2449", "Numero_Ide": "6 -7" }, "geometry": { "type": "MultiPolygon", "coordinates": [ [ [ [ -70.284849595833037, -18.481688800015242 ], [ -70.284495222298446, -18.481216629582462 ], [ -70.284035379713487, -18.481561656483727 ], [ -70.28416255805007, -18.482202204939494 ], [ -70.28426523472919, -18.482128314190138 ], [ -70.284326425553999, -18.482079102897568 ], [ -70.284385753491009, -18.482036244129844 ], [ -70.284446024184007, -18.481990653585349 ], [ -70.284507264554691, -18.481945945624123 ], [ -70.284567514988154, -18.481897644273882 ], [ -70.284623068316051, -18.481856618311173 ], [ -70.284689016597113, -18.481808263818788 ], [ -70.284745510120416, -18.481766327809492 ], [ -70.284804847100233, -18.481722550765234 ], [ -70.284849595833037, -18.481688800015242 ] ] ] ] } },
{ "type": "Feature", "properties": { "Nombre": "Departamento de Aseo", "Ubicacion": "Mantos Blancos N° 1511", "Numero_Ide": "22" }, "geometry": { "type": "MultiPolygon", "coordinates": [ [ [ [ -70.288393486340283, -18.465735124802325 ], [ -70.288227323376759, -18.465548297929782 ], [ -70.288084271813531, -18.465666742897859 ], [ -70.288295286897124, -18.465901148710376 ], [ -70.288427070223221, -18.465795440127781 ], [ -70.288440777630569, -18.465783946670214 ], [ -70.288393486340283, -18.465735124802325 ] ] ] ] } },
{ "type": "Feature", "properties": { "Nombre": "Recinto las Chepicas", "Ubicacion": "Chepicas N°2255", "Numero_Ide": "23" }, "geometry": { "type": "MultiPolygon", "coordinates": [ [ [ [ -70.284363838675233, -18.471641895437827 ], [ -70.284378298415504, -18.471612044277673 ], [ -70.284323852499014, -18.471447894494702 ], [ -70.284201821652957, -18.471326206505235 ], [ -70.284150520249071, -18.471337930978883 ], [ -70.284206215568545, -18.471670091885297 ], [ -70.284363838675233, -18.471641895437827 ] ] ] ] } },
{ "type": "Feature", "properties": { "Nombre": "Estacionamiento camiones municipales", "Ubicacion": "Linderos 1401", "Numero_Ide": "9" }, "geometry": { "type": "MultiPolygon", "coordinates": [ [ [ [ -70.284282003712988, -18.457138891146371 ], [ -70.283779115149756, -18.457124403802961 ], [ -70.283760160286164, -18.45780111322582 ], [ -70.284239027835298, -18.457815465016054 ], [ -70.284282003712988, -18.457138891146371 ] ] ] ] } },
{ "type": "Feature", "properties": { "Nombre": "Parque Centenario", "Ubicacion": "Edmundo Pérez Zujovic S/N", "Numero_Ide": "2" }, "geometry": { "type": "MultiPolygon", "coordinates": [ [ [ [ -70.301354564701001, -18.461122989521993 ], [ -70.301494507183222, -18.461063658636281 ], [ -70.301321613459407, -18.460669057940645 ], [ -70.301183401399257, -18.46072929038246 ], [ -70.300961471669439, -18.460225449487663 ], [ -70.301099455406401, -18.460179816981846 ], [ -70.30091360184646, -18.459780506430963 ], [ -70.300865468582217, -18.459801620277531 ], [ -70.30072986460678, -18.459524231677616 ], [ -70.300789353307977, -18.459502136322964 ], [ -70.300039967965901, -18.457816578268009 ], [ -70.299989635281676, -18.457797043440969 ], [ -70.298913312194003, -18.458073113906835 ], [ -70.298676701463236, -18.458136402348543 ], [ -70.29847541257999, -18.458187701359275 ], [ -70.298341782217733, -18.45822825982404 ], [ -70.29820657625136, -18.458264424673896 ], [ -70.298108275097178, -18.458294462231859 ], [ -70.298011340689158, -18.458334882175944 ], [ -70.297914677428096, -18.458378124073267 ], [ -70.297848281966864, -18.458407272585404 ], [ -70.298107495850687, -18.458792721454845 ], [ -70.297826233053172, -18.458950185038848 ], [ -70.298136742793247, -18.459413603318467 ], [ -70.298444948783569, -18.459829336634023 ], [ -70.298587286406573, -18.460003450704281 ], [ -70.298762204986062, -18.460212090682493 ], [ -70.298881718437187, -18.460348262753214 ], [ -70.298992774731758, -18.460487393349563 ], [ -70.299151092975933, -18.460677531800116 ], [ -70.29936686037405, -18.460970510139354 ], [ -70.29958425649518, -18.461246033279142 ], [ -70.299999716725168, -18.461522966691472 ], [ -70.3010727574067, -18.462039373277708 ], [ -70.302009217526333, -18.462489167753574 ], [ -70.302256983198376, -18.46255460929115 ], [ -70.302280545075362, -18.462515140309982 ], [ -70.302206116235993, -18.462392539826116 ], [ -70.302099751598618, -18.462228635855567 ], [ -70.301989248045686, -18.462050652726475 ], [ -70.301877584240316, -18.461867704794845 ], [ -70.301794482685295, -18.461717039910315 ], [ -70.301654639698882, -18.461760860401405 ], [ -70.301628779290638, -18.461718156077769 ], [ -70.301500852265249, -18.461440940525605 ], [ -70.301354564701001, -18.461122989521993 ] ] ] ] } },
{ "type": "Feature", "properties": { "Nombre": "Piscina Olímpica", "Ubicacion": "España Nº 2168", "Numero_Ide": "4" }, "geometry": { "type": "MultiPolygon", "coordinates": [ [ [ [ -70.302507152702589, -18.459501397343971 ], [ -70.301577178769648, -18.459849506632267 ], [ -70.30132511068112, -18.459943859425891 ], [ -70.301289828944761, -18.459957066026966 ], [ -70.30197105083721, -18.461446334203305 ], [ -70.302208799605978, -18.461383129452091 ], [ -70.302263609390138, -18.46137990830205 ], [ -70.302256470154234, -18.461391776860445 ], [ -70.302275665245347, -18.461386271093964 ], [ -70.302282995223393, -18.461374582854742 ], [ -70.30230190582796, -18.461368897409933 ], [ -70.30229533541133, -18.46138085423247 ], [ -70.302348038015111, -18.461392280960229 ], [ -70.303029802181811, -18.461213372928043 ], [ -70.302507152702589, -18.459501397343971 ] ] ] ] } },
{ "type": "Feature", "properties": { "Nombre": "Edificio Consistorial", "Ubicacion": "Rafael Sotomayor Nº 415", "Numero_Ide": "12" }, "geometry": { "type": "MultiPolygon", "coordinates": [ [ [ [ -70.318299791438776, -18.479923887677259 ], [ -70.318418161008083, -18.480067870771766 ], [ -70.318444012293781, -18.480104739497516 ], [ -70.318469955374965, -18.480137015351502 ], [ -70.318775443585039, -18.479853934909247 ], [ -70.318729547124633, -18.479796422392422 ], [ -70.318640588275088, -18.479680473962439 ], [ -70.318553462674444, -18.47974234636489 ], [ -70.318299791438776, -18.479923887677259 ] ] ] ] } },
{ "type": "Feature", "properties": { "Nombre": "Departamento de Cultura", "Ubicacion": "Yungay Nº401", "Numero_Ide": "15" }, "geometry": { "type": "MultiPolygon", "coordinates": [ [ [ [ -70.319776056978824, -18.481085967294355 ], [ -70.31969432066326, -18.481171477670596 ], [ -70.319966309845725, -18.481444284463439 ], [ -70.320028367262822, -18.481386019901372 ], [ -70.319776056978824, -18.481085967294355 ] ] ] ] } },
{ "type": "Feature", "properties": { "Nombre": "Dirección de Administración y Finanzas", "Ubicacion": "Sangra Nº350", "Numero_Ide": "13" }, "geometry": { "type": "MultiPolygon", "coordinates": [ [ [ [ -70.319191083269089, -18.479271982433644 ], [ -70.318856206849944, -18.478939083595435 ], [ -70.318821912429115, -18.478972714982625 ], [ -70.318762690126405, -18.479026441267116 ], [ -70.318799013137323, -18.479070466054051 ], [ -70.318870601692566, -18.479144064947338 ], [ -70.318885835757655, -18.479154775277618 ], [ -70.318896204145204, -18.479148404806995 ], [ -70.318918797210188, -18.479172212557238 ], [ -70.318951576977753, -18.479206754931941 ], [ -70.31899738349577, -18.479252520889332 ], [ -70.319030684179708, -18.479291648234334 ], [ -70.319069377675106, -18.479256061450041 ], [ -70.319134814412081, -18.479320840308262 ], [ -70.319191083269089, -18.479271982433644 ] ] ] ] } },
{ "type": "Feature", "properties": { "Nombre": "Dirección de obras municipales", "Ubicacion": "18 De Septiembre Nº 111", "Numero_Ide": "19" }, "geometry": { "type": "MultiPolygon", "coordinates": [ [ [ [ -70.319615502544593, -18.475838153703162 ], [ -70.319521077992363, -18.475750256049231 ], [ -70.319341260910946, -18.475972541780166 ], [ -70.319430003854322, -18.476060479092347 ], [ -70.319532059384798, -18.47615555263873 ], [ -70.319716475404746, -18.475931837689462 ], [ -70.319691797043276, -18.475908105078926 ], [ -70.319615502544593, -18.475838153703162 ] ] ] ] } },
{ "type": "Feature", "properties": { "Nombre": "Programa Centro Calle", "Ubicacion": "18 De Septiembre Nº650", "Numero_Ide": "18" }, "geometry": { "type": "MultiPolygon", "coordinates": [ [ [ [ -70.315676875652585, -18.48048781060006 ], [ -70.31588633105298, -18.480700969599223 ], [ -70.315928689594628, -18.480667250139341 ], [ -70.316007772950144, -18.480606157654432 ], [ -70.315984834515561, -18.480577400976053 ], [ -70.31580143469192, -18.480391950614038 ], [ -70.315676875652585, -18.48048781060006 ] ] ] ] } },
{ "type": "Feature", "properties": { "Nombre": "Dirección de Transito", "Ubicacion": "Centro Comercial Parque Colon", "Numero_Ide": "14" }, "geometry": { "type": "MultiPolygon", "coordinates": [ [ [ [ -70.316056357372673, -18.476272024593769 ], [ -70.315616499809309, -18.475923858859929 ], [ -70.315595575741014, -18.475952630185162 ], [ -70.315554296176572, -18.476003519990449 ], [ -70.315458105206645, -18.476117371819125 ], [ -70.315403154447438, -18.476177162377169 ], [ -70.315680334937866, -18.476387589945944 ], [ -70.315747995411272, -18.476443144910707 ], [ -70.31579846614629, -18.476479843073772 ], [ -70.315849904528505, -18.476519245382541 ], [ -70.316056357372673, -18.476272024593769 ] ] ] ] } },
{ "type": "Feature", "properties": { "Nombre": "Dirección de Aseo y Ornato", "Ubicacion": "Renato Rocca Nº1539", "Numero_Ide": "16" }, "geometry": { "type": "MultiPolygon", "coordinates": [ [ [ [ -70.288523562096586, -18.465893994365626 ], [ -70.287682511059373, -18.466535451131378 ], [ -70.287894327310028, -18.466802898780138 ], [ -70.288725217314138, -18.466155771162153 ], [ -70.288741159416247, -18.4661348791306 ], [ -70.288523562096586, -18.465893994365626 ] ] ] ] } },
{ "type": "Feature", "properties": { "Nombre": "Taller de Señalética", "Ubicacion": "Mantos Blancos Nº 1573", "Numero_Ide": "20" }, "geometry": { "type": "MultiPolygon", "coordinates": [ [ [ [ -70.287497976249185, -18.46612547164456 ], [ -70.287708528817561, -18.466353117536865 ], [ -70.287852431901399, -18.466239160812904 ], [ -70.287642243726367, -18.466010860179633 ], [ -70.287497976249185, -18.46612547164456 ] ] ] ] } },
{ "type": "Feature", "properties": { "Nombre": "Delegación Norte", "Ubicacion": "Curali Nº 848", "Numero_Ide": "11" }, "geometry": { "type": "MultiPolygon", "coordinates": [ [ [ [ -70.292111500381154, -18.439398492997036 ], [ -70.292130453086372, -18.439530046521558 ], [ -70.292173406716373, -18.439828204710906 ], [ -70.292190645878264, -18.43994254113553 ], [ -70.292278321614688, -18.439930499502999 ], [ -70.292418662899635, -18.439911450175238 ], [ -70.2923256833772, -18.439368462370442 ], [ -70.292111500381154, -18.439398492997036 ] ] ] ] } },
{ "type": "Feature", "properties": { "Nombre": "Teatro Municipal", "Ubicacion": "Baquedano Nº 234", "Numero_Ide": "8" }, "geometry": { "type": "MultiPolygon", "coordinates": [ [ [ [ -70.31865119615405, -18.480495177240847 ], [ -70.318605133340654, -18.480539775617988 ], [ -70.318620385826478, -18.480554118411032 ], [ -70.318566807300797, -18.480606003536124 ], [ -70.318590670172227, -18.480631133515061 ], [ -70.318568235699445, -18.480668338374297 ], [ -70.31866391811127, -18.480776630553546 ], [ -70.318709886764125, -18.480739651287703 ], [ -70.318750329983416, -18.48070322464778 ], [ -70.318793565715538, -18.480660453173027 ], [ -70.318841432603264, -18.480604095050243 ], [ -70.31889032244699, -18.480557669680053 ], [ -70.318890317677599, -18.480557665195136 ], [ -70.318939247767034, -18.480515762181696 ], [ -70.319065707453746, -18.480396505588324 ], [ -70.318917273402505, -18.480243020132288 ], [ -70.31887217151224, -18.480289419128646 ], [ -70.318834555487925, -18.480324018850833 ], [ -70.318796020123784, -18.48036223947204 ], [ -70.318754636933761, -18.480399576288907 ], [ -70.318707620296294, -18.480443277703653 ], [ -70.31865119615405, -18.480495177240847 ] ] ] ] } },
{ "type": "Feature", "properties": { "Nombre": "Estadio Carlos Dittborn", "Ubicacion": "18 De Septiembre Nº2000", "Numero_Ide": "1" }, "geometry": { "type": "MultiPolygon", "coordinates": [ [ [ [ -70.301465059474538, -18.489650370767261 ], [ -70.301444412300285, -18.489600322365213 ], [ -70.301402939783358, -18.489501208118924 ], [ -70.301359552805181, -18.489399396128466 ], [ -70.301317112903419, -18.489297577614458 ], [ -70.301275620076424, -18.489195752577654 ], [ -70.301236041808579, -18.489096625260455 ], [ -70.301196429481891, -18.488992980013411 ], [ -70.301158718066915, -18.488890225320738 ], [ -70.301102863278331, -18.488767715432573 ], [ -70.301062345024789, -18.488669498154177 ], [ -70.301018903921843, -18.488560457382327 ], [ -70.30098034800821, -18.488471262899886 ], [ -70.300949436471853, -18.488391052185698 ], [ -70.300907950931077, -18.48829013061561 ], [ -70.300868364277179, -18.488189205022195 ], [ -70.300828788524342, -18.488090972161277 ], [ -70.300787262222642, -18.48798462905004 ], [ -70.300755435940843, -18.487908048134006 ], [ -70.300715858310937, -18.48780892065815 ], [ -70.30070619043677, -18.487782781785075 ], [ -70.300661804817182, -18.487674641979904 ], [ -70.3006222136666, -18.487573707307671 ], [ -70.30057976789449, -18.487470984970606 ], [ -70.300536306990708, -18.487359233285197 ], [ -70.300306009122352, -18.486806040780696 ], [ -70.299775583972377, -18.486997707501246 ], [ -70.299635217928127, -18.486599056431071 ], [ -70.299526948024464, -18.486632406165178 ], [ -70.29953570204971, -18.486664867768393 ], [ -70.299371320946236, -18.486715695601841 ], [ -70.29925426978798, -18.486390306023797 ], [ -70.298201004333137, -18.48674904022176 ], [ -70.298253312148219, -18.486907723430232 ], [ -70.297899900274317, -18.487023585487442 ], [ -70.297920376925106, -18.487088021345809 ], [ -70.297955224539706, -18.48718808556713 ], [ -70.297776633945617, -18.487241720366956 ], [ -70.297509895961809, -18.487323092424859 ], [ -70.297875933111484, -18.487858148669474 ], [ -70.298020292653774, -18.487907636804451 ], [ -70.298426884034782, -18.488488808900733 ], [ -70.298453339490678, -18.488480521895326 ], [ -70.29850654168456, -18.488628325436231 ], [ -70.298435314330391, -18.48871918519027 ], [ -70.299012242642974, -18.489502264118389 ], [ -70.299378511118448, -18.490034699231018 ], [ -70.299510953329701, -18.490132087127726 ], [ -70.299603560718495, -18.49019004013558 ], [ -70.299740434850406, -18.490241756851152 ], [ -70.299894333417058, -18.490279245471772 ], [ -70.300023933088909, -18.490310733546309 ], [ -70.300129184478749, -18.490330054186455 ], [ -70.300302243518402, -18.490335032892112 ], [ -70.300567115281524, -18.490324859376745 ], [ -70.301069005657183, -18.490306840651336 ], [ -70.301627917290119, -18.490197264021276 ], [ -70.301679921855367, -18.490186062897635 ], [ -70.301649970314017, -18.490107653006255 ], [ -70.301609417269077, -18.490004917980748 ], [ -70.301566949754658, -18.489899485214128 ], [ -70.30152735066342, -18.489797647235321 ], [ -70.301484931020966, -18.489698539525435 ], [ -70.301465059474538, -18.489650370767261 ] ] ] ] } },
{ "type": "Feature", "properties": { "Nombre": "Villa albergue", "Ubicacion": "18 DE SEPTIEMBRE Nº 2000 - B", "Numero_Ide": "5" }, "geometry": { "type": "MultiPolygon", "coordinates": [ [ [ [ -70.299635217928127, -18.486599056431071 ], [ -70.299775583972377, -18.486997707501246 ], [ -70.300306009122352, -18.486806040780696 ], [ -70.300160000476325, -18.486437403242746 ], [ -70.299635217928127, -18.486599056431071 ] ] ] ] } }
]
}
